{"type": "FeatureCollection", "features": [{"type": "Feature", "properties": {"layer": "hit", "id": "HIT-001", "nombre": "HIT Guadalajara Centro", "estado": "jalisco", "status": "construido", "km_aprox": null, "origen": null, "destino": null}, "geometry": {"type": "Point", "coordinates": [-103.3496, 20.6736]}}, {"type": "Feature", "properties": {"layer": "sitio", "id": "SIT-001", "nombre": "Sitio Zapopan", "estado": "jalisco", "status": "planeado", "km_aprox": null, "origen": null, "destino": null}, "geometry": {"type": "Point", "coordinates": [-103.3918, 20.7214]}}, {"type": "Feature", "properties": {"layer": "fibra", "id": "FIB-001", "nombre": "Tramo GDL Centro → Zapopan", "estado": "jalisco", "status": "construido", "km_aprox": 9.4, "origen": "HIT-001", "destino": "SIT-001"}, "geometry": {"type": "LineString", "coordinates": [[-103.3496, 20.6736], [-103.3602, 20.69], [-103.3725, 20.705], [-103.3918, 20.7214]]}}]}