{"type": "FeatureCollection", "features": [{"type": "Feature", "properties": {"NOM_S.A.": "Infotec DC Aguascalientes", "LAT": 21.895423, "LON": -102.351788}, "geometry": {"type": "Point", "coordinates": [-102.3517882813312, 21.89542260332143, 0.0]}}, {"type": "Feature", "properties": {"NOM_S.A.": "TIER1 Cirion Aguascalientes", "LAT": 21.878611, "LON": -102.288929}, "geometry": {"type": "Point", "coordinates": [-102.28892899999998, 21.878611, 0.0]}}, {"type": "Feature", "properties": {"NOM_S.A.": "UMF JESÚS MARÍA", "LAT": 21.955718, "LON": -102.338366}, "geometry": {"type": "Point", "coordinates": [-102.3383663942423, 21.95571767296752, 0.0]}}, {"type": "Feature", "properties": {"NOM_S.A.": "CMS 14A", "LAT": 21.899531, "LON": -102.268069}, "geometry": {"type": "Point", "coordinates": [-102.26806933410498, 21.899531488582998, 0.0]}}, {"type": "Feature", "properties": {"NOM_S.A.": "BANBIEN DN8B1434", "LAT": 21.918501, "LON": -101.969997}, "geometry": {"type": "Point", "coordinates": [-101.96999738575617, 21.918500544096197, 0.0]}}, {"type": "Feature", "properties": {"NOM_S.A.": "BANBIEN DN8B0845", "LAT": 22.236973, "LON": -102.088167}, "geometry": {"type": "Point", "coordinates": [-102.08816660844487, 22.236972795393722, 0.0]}}, {"type": "Feature", "properties": {"NOM_S.A.": "BANBIEN DN8B2027", "LAT": 22.063687, "LON": -102.262239}, "geometry": {"type": "Point", "coordinates": [-102.26223899999998, 22.063686999999994, 0.0]}}, {"type": "Feature", "properties": {"NOM_S.A.": "CMS 14C", "LAT": 22.234444, "LON": -102.319722}, "geometry": {"type": "Point", "coordinates": [-102.3197222222222, 22.234444444444453, 0.0]}}, {"type": "Feature", "properties": {"NOM_S.A.": "BANBIEN DN8B1435", "LAT": 22.219648, "LON": -102.163888}, "geometry": {"type": "Point", "coordinates": [-102.16388808906899, 22.219648377544612, 0.0]}}, {"type": "Feature", "properties": {"NOM_S.A.": "BANBIEN DN8B0544", "LAT": 22.145902, "LON": -102.41358}, "geometry": {"type": "Point", "coordinates": [-102.41357954158008, 22.145902256248863, 0.0]}}, {"type": "Feature", "properties": {"NOM_S.A.": "BANBIEN DN8B0222", "LAT": 22.148764, "LON": -102.281445}, "geometry": {"type": "Point", "coordinates": [-102.28144525930217, 22.148763906048377, 0.0]}}, {"type": "Feature", "properties": {"NOM_S.A.": "Infotec DC Aguascalientes", "LAT": 21.895423, "LON": -102.351788}, "geometry": {"type": "Point", "coordinates": [-102.3517882813312, 21.89542260332143, 0.0]}}, {"type": "Feature", "properties": {"NOM_S.A.": "BANBIEN DN8B0796", "LAT": 18.923136, "LON": -103.888605}, "geometry": {"type": "Point", "coordinates": [-103.8886046467417, 18.9231356749892, 0.0]}}, {"type": "Feature", "properties": {"NOM_S.A.": "CAC CFE 282", "LAT": 19.0504, "LON": -104.317398}, "geometry": {"type": "Point", "coordinates": [-104.31739806999997, 19.05039978, 0.0]}}, {"type": "Feature", "properties": {"NOM_S.A.": "S.E. Salahua", "LAT": 19.116977, "LON": -104.34157}, "geometry": {"type": "Point", "coordinates": [-104.34157, 19.116977, 0.0]}}, {"type": "Feature", "properties": {"NOM_S.A.": "UMF COLIMA", "LAT": 19.252717, "LON": -103.723834}, "geometry": {"type": "Point", "coordinates": [-103.7238340041044, 19.25271715546053, 0.0]}}, {"type": "Feature", "properties": {"NOM_S.A.": "CS COQUIMATLÁN", "LAT": 19.202061, "LON": -103.809444}, "geometry": {"type": "Point", "coordinates": [-103.8094437315865, 19.202060678221525, 0.0]}}, {"type": "Feature", "properties": {"NOM_S.A.": "BANBIEN DN8B0694", "LAT": 19.332789, "LON": -103.606667}, "geometry": {"type": "Point", "coordinates": [-103.60666699999999, 19.332788999999995, 0.0]}}, {"type": "Feature", "properties": {"NOM_S.A.": "BANBIEN DN8B0315", "LAT": 19.279145, "LON": -103.737883}, "geometry": {"type": "Point", "coordinates": [-103.73788342148279, 19.279144653790805, 0.0]}}, {"type": "Feature", "properties": {"NOM_S.A.": "BANBIEN DN8B0110", "LAT": 19.323825, "LON": -103.764893}, "geometry": {"type": "Point", "coordinates": [-103.76489299999999, 19.323825, 0.0]}}, {"type": "Feature", "properties": {"NOM_S.A.": "POP Colima", "LAT": 19.253522, "LON": -103.729044}, "geometry": {"type": "Point", "coordinates": [-103.72904444444438, 19.253522222222212, 0.0]}}, {"type": "Feature", "properties": {"NOM_S.A.": "S.E Bicentenario", "LAT": 19.2418, "LON": -103.7579}, "geometry": {"type": "Point", "coordinates": [-103.7579, 19.241799999999998, 0.0]}}, {"type": "Feature", "properties": {"NOM_S.A.": "POP Colima", "LAT": 19.253522, "LON": -103.729044}, "geometry": {"type": "Point", "coordinates": [-103.72904444444438, 19.253522222222212, 0.0]}}, {"type": "Feature", "properties": {"NOM_S.A.": "UMF SAN MIGUEL DE ALLENDE", "LAT": 20.924178, "LON": -100.741455}, "geometry": {"type": "Point", "coordinates": [-100.7414551318521, 20.924177890797708, 0.0]}}, {"type": "Feature", "properties": {"NOM_S.A.": "BANBIEN DN8B2039", "LAT": 21.159389, "LON": -100.914477}, "geometry": {"type": "Point", "coordinates": [-100.9144768766736, 21.159388856155008, 0.0]}}, {"type": "Feature", "properties": {"NOM_S.A.": "BANBIEN DN8B0388", "LAT": 21.477677, "LON": -101.205155}, "geometry": {"type": "Point", "coordinates": [-101.20515467427656, 21.477676679308967, 0.0]}}, {"type": "Feature", "properties": {"NOM_S.A.": "BANBIEN DN8B0241", "LAT": 21.468623, "LON": -100.875496}, "geometry": {"type": "Point", "coordinates": [-100.87549614352898, 21.468623376785462, 0.0]}}, {"type": "Feature", "properties": {"NOM_S.A.": "TELECOMM 11055", "LAT": 21.212075, "LON": -100.21575}, "geometry": {"type": "Point", "coordinates": [-100.21574999999997, 21.212075, 0.0]}}, {"type": "Feature", "properties": {"NOM_S.A.": "TELECOMM 11021", "LAT": 21.142491, "LON": -100.318961}, "geometry": {"type": "Point", "coordinates": [-100.318961, 21.142491, 0.0]}}, {"type": "Feature", "properties": {"NOM_S.A.": "BANBIEN DN8B0397", "LAT": 21.291325, "LON": -100.516546}, "geometry": {"type": "Point", "coordinates": [-100.516546, 21.291324999999993, 0.0]}}, {"type": "Feature", "properties": {"NOM_S.A.": "BANBIEN DN8B1194", "LAT": 20.153178, "LON": -101.183644}, "geometry": {"type": "Point", "coordinates": [-101.18364416701988, 20.153177942865547, 0.0]}}, {"type": "Feature", "properties": {"NOM_S.A.": "CGN DN8GN59", "LAT": 20.213422, "LON": -101.109306}, "geometry": {"type": "Point", "coordinates": [-101.109306, 20.213422, 0.0]}}, {"type": "Feature", "properties": {"NOM_S.A.": "BANBIEN DN8B0208", "LAT": 20.124595, "LON": -101.204973}, "geometry": {"type": "Point", "coordinates": [-101.20497332314137, 20.124594654748712, 0.0]}}, {"type": "Feature", "properties": {"NOM_S.A.": "BANBIEN DN8B0773", "LAT": 20.37187, "LON": -101.078618}, "geometry": {"type": "Point", "coordinates": [-101.07861795055523, 20.37186989805423, 0.0]}}, {"type": "Feature", "properties": {"NOM_S.A.": "TELECOMM 11049", "LAT": 20.1688, "LON": -100.99834}, "geometry": {"type": "Point", "coordinates": [-100.99833999999998, 20.168800000000005, 0.0]}}, {"type": "Feature", "properties": {"NOM_S.A.": "BANBIEN DN8B0235", "LAT": 20.211086, "LON": -100.877421}, "geometry": {"type": "Point", "coordinates": [-100.87742115129444, 20.211086394215886, 0.0]}}, {"type": "Feature", "properties": {"NOM_S.A.": "CAC CFE 326", "LAT": 21.011168, "LON": -101.25834}, "geometry": {"type": "Point", "coordinates": [-101.25833981776141, 21.011167827802197, 0.0]}}, {"type": "Feature", "properties": {"NOM_S.A.": "S.E. Guanajuato Sur", "LAT": 20.960323, "LON": -101.281484}, "geometry": {"type": "Point", "coordinates": [-101.28148414182199, 20.960322511406005, 0.0]}}, {"type": "Feature", "properties": {"NOM_S.A.": "BANBIEN DN8B0030", "LAT": 20.536285, "LON": -100.816628}, "geometry": {"type": "Point", "coordinates": [-100.816628, 20.53628499999999, 0.0]}}, {"type": "Feature", "properties": {"NOM_S.A.": "BANBIEN DN8B0035", "LAT": 20.483833, "LON": -100.953491}, "geometry": {"type": "Point", "coordinates": [-100.953491, 20.483832999999997, 0.0]}}, {"type": "Feature", "properties": {"NOM_S.A.": "BANBIEN DN8B0225", "LAT": 20.427639, "LON": -101.731079}, "geometry": {"type": "Point", "coordinates": [-101.731079, 20.427639, 0.0]}}, {"type": "Feature", "properties": {"NOM_S.A.": "BANBIEN DN8B0403", "LAT": 20.642308, "LON": -100.9879}, "geometry": {"type": "Point", "coordinates": [-100.98789999999997, 20.642308, 0.0]}}, {"type": "Feature", "properties": {"NOM_S.A.": "BANBIEN DN8B0636", "LAT": 20.551657, "LON": -100.685739}, "geometry": {"type": "Point", "coordinates": [-100.685739, 20.551657, 0.0]}}, {"type": "Feature", "properties": {"NOM_S.A.": "BANBIEN DN8B0687", "LAT": 20.717583, "LON": -100.76479}, "geometry": {"type": "Point", "coordinates": [-100.76479, 20.717583, 0.0]}}, {"type": "Feature", "properties": {"NOM_S.A.": "CAC CFE 312", "LAT": 20.450981, "LON": -101.530853}, "geometry": {"type": "Point", "coordinates": [-101.5308534877591, 20.450980671521158, 0.0]}}, {"type": "Feature", "properties": {"NOM_S.A.": "CAC CFE 314", "LAT": 20.46282, "LON": -100.618721}, "geometry": {"type": "Point", "coordinates": [-100.61872100999997, 20.462820049999994, 0.0]}}, {"type": "Feature", "properties": {"NOM_S.A.": "CAC CFE 345", "LAT": 20.870701, "LON": -101.517967}, "geometry": {"type": "Point", "coordinates": [-101.51796722, 20.870700840000005, 0.0]}}, {"type": "Feature", "properties": {"NOM_S.A.": "CAC CFE 357", "LAT": 20.943928, "LON": -101.429672}, "geometry": {"type": "Point", "coordinates": [-101.42967223999997, 20.94392776, 0.0]}}, {"type": "Feature", "properties": {"NOM_S.A.": "CAC CFE 358", "LAT": 20.284416, "LON": -100.755722}, "geometry": {"type": "Point", "coordinates": [-100.75572205, 20.2844162, 0.0]}}, {"type": "Feature", "properties": {"NOM_S.A.": "CAC CFE 360", "LAT": 20.391669, "LON": -101.179719}, "geometry": {"type": "Point", "coordinates": [-101.1797190295198, 20.391669393596292, 0.0]}}, {"type": "Feature", "properties": {"NOM_S.A.": "CAC CFE 361", "LAT": 20.510611, "LON": -100.989113}, "geometry": {"type": "Point", "coordinates": [-100.98911285, 20.510610580000005, 0.0]}}, {"type": "Feature", "properties": {"NOM_S.A.": "CGN DN8GN50", "LAT": 21.097558, "LON": -101.591678}, "geometry": {"type": "Point", "coordinates": [-101.591678, 21.097558, 0.0]}}, {"type": "Feature", "properties": {"NOM_S.A.": "CGN DN8GN53", "LAT": 20.560251, "LON": -101.192842}, "geometry": {"type": "Point", "coordinates": [-101.19284189690109, 20.56025106617419, 0.0]}}, {"type": "Feature", "properties": {"NOM_S.A.": "CMS 16A", "LAT": 20.664722, "LON": -101.323056}, "geometry": {"type": "Point", "coordinates": [-101.3230555555556, 20.664722222222217, 0.0]}}, {"type": "Feature", "properties": {"NOM_S.A.": "S.E. Salamanca Sur", "LAT": 20.54335, "LON": -101.19161}, "geometry": {"type": "Point", "coordinates": [-101.19160999999998, 20.543350000000004, 0.0]}}, {"type": "Feature", "properties": {"NOM_S.A.": "SEPOMEX HUANÍMARO", "LAT": 20.367862, "LON": -101.49866}, "geometry": {"type": "Point", "coordinates": [-101.49865981019896, 20.367862367140972, 0.0]}}, {"type": "Feature", "properties": {"NOM_S.A.": "BANBIEN DN8B2509", "LAT": 20.529887, "LON": -101.373842}, "geometry": {"type": "Point", "coordinates": [-101.37384234064389, 20.529886898191464, 0.0]}}, {"type": "Feature", "properties": {"NOM_S.A.": "TELECOMM 11051", "LAT": 20.002436, "LON": -100.516481}, "geometry": {"type": "Point", "coordinates": [-100.516481, 20.002436, 0.0]}}, {"type": "Feature", "properties": {"NOM_S.A.": "BANBIEN DN8B0185", "LAT": 20.73073, "LON": -101.957312}, "geometry": {"type": "Point", "coordinates": [-101.9573124066818, 20.730730349016323, 0.0]}}, {"type": "Feature", "properties": {"NOM_S.A.": "TELECOMM 11030", "LAT": 21.026262, "LON": -101.877483}, "geometry": {"type": "Point", "coordinates": [-101.87748299999998, 21.026262, 0.0]}}, {"type": "Feature", "properties": {"NOM_S.A.": "BANBIEN DN8B0389", "LAT": 21.00917, "LON": -101.861955}, "geometry": {"type": "Point", "coordinates": [-101.86195535780868, 21.009169917712512, 0.0]}}, {"type": "Feature", "properties": {"NOM_S.A.": "CMS 41B", "LAT": 20.625, "LON": -105.221944}, "geometry": {"type": "Point", "coordinates": [-105.2219444444445, 20.625, 0.0]}}, {"type": "Feature", "properties": {"NOM_S.A.": "BANBIEN DN8B1473", "LAT": 19.696683, "LON": -103.478043}, "geometry": {"type": "Point", "coordinates": [-103.47804275671028, 19.69668276632693, 0.0]}}, {"type": "Feature", "properties": {"NOM_S.A.": "BANBIEN DN8B1476", "LAT": 19.790701, "LON": -103.468151}, "geometry": {"type": "Point", "coordinates": [-103.46815071917278, 19.79070130906056, 0.0]}}, {"type": "Feature", "properties": {"NOM_S.A.": "CMS 15C", "LAT": 19.885171, "LON": -103.582756}, "geometry": {"type": "Point", "coordinates": [-103.5827556885524, 19.88517068766701, 0.0]}}, {"type": "Feature", "properties": {"NOM_S.A.": "BANBIEN AMACUECA", "LAT": 20.006494, "LON": -103.600216}, "geometry": {"type": "Point", "coordinates": [-103.60021553145069, 20.006494154587017, 0.0]}}, {"type": "Feature", "properties": {"NOM_S.A.": "BANBIEN DN8B1474", "LAT": 20.010318, "LON": -103.528009}, "geometry": {"type": "Point", "coordinates": [-103.52800880376289, 20.010317611303467, 0.0]}}, {"type": "Feature", "properties": {"NOM_S.A.": "BANBIEN ZAPOTILTIC", "LAT": 19.628664, "LON": -103.412475}, "geometry": {"type": "Point", "coordinates": [-103.41247453693029, 19.6286643801428, 0.0]}}, {"type": "Feature", "properties": {"NOM_S.A.": "BANBIEN TUXPAN", "LAT": 19.554471, "LON": -103.36962}, "geometry": {"type": "Point", "coordinates": [-103.3696198888667, 19.554471447678356, 0.0]}}, {"type": "Feature", "properties": {"NOM_S.A.": "BANBIEN DN8B1478", "LAT": 19.462144, "LON": -103.305006}, "geometry": {"type": "Point", "coordinates": [-103.30500587152707, 19.462144192331866, 0.0]}}, {"type": "Feature", "properties": {"NOM_S.A.": "BANBIEN DN8GN28", "LAT": 20.809347, "LON": -102.765835}, "geometry": {"type": "Point", "coordinates": [-102.7658354208592, 20.809347323423374, 0.0]}}, {"type": "Feature", "properties": {"NOM_S.A.": "CAC CFE 520", "LAT": 21.010715, "LON": -102.615799}, "geometry": {"type": "Point", "coordinates": [-102.6157988949707, 21.01071531363951, 0.0]}}, {"type": "Feature", "properties": {"NOM_S.A.": "BANBIEN SAN IGNACIO CERRO GORDO", "LAT": 20.747706, "LON": -102.528542}, "geometry": {"type": "Point", "coordinates": [-102.52854223842937, 20.74770559674494, 0.0]}}, {"type": "Feature", "properties": {"NOM_S.A.": "CAC CFE 432", "LAT": 20.69433, "LON": -102.354668}, "geometry": {"type": "Point", "coordinates": [-102.35466796519299, 20.694330482394605, 0.0]}}, {"type": "Feature", "properties": {"NOM_S.A.": "BANBIEN CAÑADAS DE OBREGÓN", "LAT": 21.152108, "LON": -102.685744}, "geometry": {"type": "Point", "coordinates": [-102.68574420790551, 21.15210790913911, 0.0]}}, {"type": "Feature", "properties": {"NOM_S.A.": "CAC CFE 517", "LAT": 20.546125, "LON": -102.791076}, "geometry": {"type": "Point", "coordinates": [-102.7910756401778, 20.54612523634322, 0.0]}}, {"type": "Feature", "properties": {"NOM_S.A.": "CAC CFE 427", "LAT": 20.781216, "LON": -102.910648}, "geometry": {"type": "Point", "coordinates": [-102.9106483573141, 20.78121643124914, 0.0]}}, {"type": "Feature", "properties": {"NOM_S.A.": "CAC CFE 469", "LAT": 21.166483, "LON": -102.475189}, "geometry": {"type": "Point", "coordinates": [-102.47518921, 21.166482929999997, 0.0]}}, {"type": "Feature", "properties": {"NOM_S.A.": "CAC CFE 489", "LAT": 21.251413, "LON": -102.330467}, "geometry": {"type": "Point", "coordinates": [-102.33046722, 21.25141335, 0.0]}}, {"type": "Feature", "properties": {"NOM_S.A.": "UMF DEGOLLADO", "LAT": 20.447382, "LON": -102.139395}, "geometry": {"type": "Point", "coordinates": [-102.13939503201881, 20.44738195577965, 0.0]}}, {"type": "Feature", "properties": {"NOM_S.A.": "BANBIEN DN8B0102", "LAT": 19.236175, "LON": -104.565752}, "geometry": {"type": "Point", "coordinates": [-104.565752301644, 19.2361748956215, 0.0]}}, {"type": "Feature", "properties": {"NOM_S.A.": "SEPOMEX 14208", "LAT": 19.408916, "LON": -103.551613}, "geometry": {"type": "Point", "coordinates": [-103.551613, 19.408915999999998, 0.0]}}, {"type": "Feature", "properties": {"NOM_S.A.": "BANBIEN AMATITÁN", "LAT": 20.829464, "LON": -103.736112}, "geometry": {"type": "Point", "coordinates": [-103.7361122271898, 20.829464191901238, 0.0]}}, {"type": "Feature", "properties": {"NOM_S.A.": "BANBIEN DN8B0334", "LAT": 20.526865, "LON": -102.337069}, "geometry": {"type": "Point", "coordinates": [-102.33706899999999, 20.526865, 0.0]}}, {"type": "Feature", "properties": {"NOM_S.A.": "BANBIEN DN8B0339", "LAT": 20.299607, "LON": -103.195512}, "geometry": {"type": "Point", "coordinates": [-103.1955119211161, 20.29960698561078, 0.0]}}, {"type": "Feature", "properties": {"NOM_S.A.": "BANBIEN DN8B0366", "LAT": 20.297286, "LON": -102.71353}, "geometry": {"type": "Point", "coordinates": [-102.71353, 20.297285999999996, 0.0]}}, {"type": "Feature", "properties": {"NOM_S.A.": "BANBIEN DN8B0396", "LAT": 20.794168, "LON": -103.999535}, "geometry": {"type": "Point", "coordinates": [-103.99953499999998, 20.794167999999996, 0.0]}}, {"type": "Feature", "properties": {"NOM_S.A.": "BANBIEN DN8B0413", "LAT": 20.162532, "LON": -103.049151}, "geometry": {"type": "Point", "coordinates": [-103.0491507662388, 20.16253185047598, 0.0]}}, {"type": "Feature", "properties": {"NOM_S.A.": "BANBIEN DN8B0426", "LAT": 20.465382, "LON": -102.928155}, "geometry": {"type": "Point", "coordinates": [-102.92815499999998, 20.465381999999995, 0.0]}}, {"type": "Feature", "properties": {"NOM_S.A.": "BANBIEN DN8B1047", "LAT": 20.514664, "LON": -103.169064}, "geometry": {"type": "Point", "coordinates": [-103.16906399072928, 20.5146641037034, 0.0]}}, {"type": "Feature", "properties": {"NOM_S.A.": "BANBIEN DN8B1049", "LAT": 20.630285, "LON": -103.282835}, "geometry": {"type": "Point", "coordinates": [-103.2828345594591, 20.630284979107717, 0.0]}}, {"type": "Feature", "properties": {"NOM_S.A.": "BANBIEN DN8B1051", "LAT": 20.290743, "LON": -103.426469}, "geometry": {"type": "Point", "coordinates": [-103.4264694402137, 20.290742709409702, 0.0]}}, {"type": "Feature", "properties": {"NOM_S.A.": "BANBIEN DN8B1480", "LAT": 20.707752, "LON": -103.975847}, "geometry": {"type": "Point", "coordinates": [-103.97584699999997, 20.707752, 0.0]}}, {"type": "Feature", "properties": {"NOM_S.A.": "BANBIEN DN8B1900", "LAT": 20.235724, "LON": -103.559753}, "geometry": {"type": "Point", "coordinates": [-103.55975267476127, 20.23572410862091, 0.0]}}, {"type": "Feature", "properties": {"NOM_S.A.": "BANBIEN DN8B1903", "LAT": 20.068631, "LON": -103.549399}, "geometry": {"type": "Point", "coordinates": [-103.5493994717401, 20.068630582264937, 0.0]}}, {"type": "Feature", "properties": {"NOM_S.A.": "BANBIEN DN8B2439", "LAT": 20.414994, "LON": -103.65911}, "geometry": {"type": "Point", "coordinates": [-103.65911, 20.414993999999997, 0.0]}}, {"type": "Feature", "properties": {"NOM_S.A.": "BANBIEN DN8B2570", "LAT": 20.100512, "LON": -103.379063}, "geometry": {"type": "Point", "coordinates": [-103.3790628647861, 20.10051183077243, 0.0]}}, {"type": "Feature", "properties": {"NOM_S.A.": "BANBIEN DN8B2472", "LAT": 20.764424, "LON": -104.093274}, "geometry": {"type": "Point", "coordinates": [-104.09327393438728, 20.76442449291803, 0.0]}}, {"type": "Feature", "properties": {"NOM_S.A.": "BANBIEN TEQUILA", "LAT": 20.866824, "LON": -103.834581}, "geometry": {"type": "Point", "coordinates": [-103.83458105832257, 20.86682378099615, 0.0]}}, {"type": "Feature", "properties": {"NOM_S.A.": "BANBIEN TEUCHITLÁN", "LAT": 20.685043, "LON": -103.849184}, "geometry": {"type": "Point", "coordinates": [-103.8491836098751, 20.685042773112436, 0.0]}}, {"type": "Feature", "properties": {"NOM_S.A.": "BANBIEN TUXCUECA", "LAT": 20.15708, "LON": -103.188977}, "geometry": {"type": "Point", "coordinates": [-103.18897742732517, 20.15708008638444, 0.0]}}, {"type": "Feature", "properties": {"NOM_S.A.": "BANBIEN ZAPOTLANEJO", "LAT": 20.614708, "LON": -103.075071}, "geometry": {"type": "Point", "coordinates": [-103.07507142199421, 20.61470835137532, 0.0]}}, {"type": "Feature", "properties": {"NOM_S.A.": "CAC CFE 428", "LAT": 20.425259, "LON": -103.594629}, "geometry": {"type": "Point", "coordinates": [-103.59462895695819, 20.42525873419364, 0.0]}}, {"type": "Feature", "properties": {"NOM_S.A.": "CAC CFE 434", "LAT": 20.546129, "LON": -102.522697}, "geometry": {"type": "Point", "coordinates": [-102.52269745000001, 20.546129229999995, 0.0]}}, {"type": "Feature", "properties": {"NOM_S.A.": "CAC CFE 445", "LAT": 20.520117, "LON": -103.180878}, "geometry": {"type": "Point", "coordinates": [-103.18087769, 20.52011681, 0.0]}}, {"type": "Feature", "properties": {"NOM_S.A.": "CAC CFE 446", "LAT": 21.520184, "LON": -102.240288}, "geometry": {"type": "Point", "coordinates": [-102.24028778, 21.520183560000003, 0.0]}}, {"type": "Feature", "properties": {"NOM_S.A.": "CAC CFE 471", "LAT": 20.609201, "LON": -102.222542}, "geometry": {"type": "Point", "coordinates": [-102.22254181, 20.60920143, 0.0]}}, {"type": "Feature", "properties": {"NOM_S.A.": "CAC CFE 474", "LAT": 20.293249, "LON": -102.552948}, "geometry": {"type": "Point", "coordinates": [-102.552948, 20.293249129999996, 0.0]}}, {"type": "Feature", "properties": {"NOM_S.A.": "CAC CFE 477", "LAT": 21.361232, "LON": -101.926303}, "geometry": {"type": "Point", "coordinates": [-101.926303, 21.361231993681336, 0.0]}}, {"type": "Feature", "properties": {"NOM_S.A.": "CAC CFE 485", "LAT": 20.385226, "LON": -102.927069}, "geometry": {"type": "Point", "coordinates": [-102.92706929947757, 20.385226119119547, 0.0]}}, {"type": "Feature", "properties": {"NOM_S.A.": "CAC CFE 529", "LAT": 20.728251, "LON": -103.40834}, "geometry": {"type": "Point", "coordinates": [-103.40834044999997, 20.7282505, 0.0]}}, {"type": "Feature", "properties": {"NOM_S.A.": "CGN DN8GN19", "LAT": 20.633477, "LON": -103.300729}, "geometry": {"type": "Point", "coordinates": [-103.300729, 20.633476999999996, 0.0]}}, {"type": "Feature", "properties": {"NOM_S.A.": "CGN DN8GN29", "LAT": 21.677643, "LON": -102.576641}, "geometry": {"type": "Point", "coordinates": [-102.57664099999998, 21.677643, 0.0]}}, {"type": "Feature", "properties": {"NOM_S.A.": "CMS 15D", "LAT": 20.5325, "LON": -104.038611}, "geometry": {"type": "Point", "coordinates": [-104.03861111111107, 20.53249999999999, 0.0]}}, {"type": "Feature", "properties": {"NOM_S.A.": "CMS 41404001", "LAT": 20.669444, "LON": -103.3325}, "geometry": {"type": "Point", "coordinates": [-103.33249999999997, 20.66944444444444, 0.0]}}, {"type": "Feature", "properties": {"NOM_S.A.": "CMS 41406203", "LAT": 20.346667, "LON": -102.773056}, "geometry": {"type": "Point", "coordinates": [-102.7730555555556, 20.346666666666657, 0.0]}}, {"type": "Feature", "properties": {"NOM_S.A.": "CS IXTLAHUACÁN DE LOS MEMBRILLOS", "LAT": 20.349556, "LON": -103.191762}, "geometry": {"type": "Point", "coordinates": [-103.19176224986998, 20.34955644921796, 0.0]}}, {"type": "Feature", "properties": {"NOM_S.A.": "S.E La Experiencia", "LAT": 20.71143, "LON": -103.33481}, "geometry": {"type": "Point", "coordinates": [-103.33480999999999, 20.71143, 0.0]}}, {"type": "Feature", "properties": {"NOM_S.A.": "POP GUADALAJARA", "LAT": 20.657015, "LON": -103.353776}, "geometry": {"type": "Point", "coordinates": [-103.3537756674685, 20.657014832952157, 0.0]}}, {"type": "Feature", "properties": {"NOM_S.A.": "SEPOMEX 14183", "LAT": 19.932773, "LON": -102.943715}, "geometry": {"type": "Point", "coordinates": [-102.94371533683429, 19.932772562690992, 0.0]}}, {"type": "Feature", "properties": {"NOM_S.A.": "TELECOMM 14009", "LAT": 20.77661, "LON": -103.695691}, "geometry": {"type": "Point", "coordinates": [-103.6956906, 20.7766102, 0.0]}}, {"type": "Feature", "properties": {"NOM_S.A.": "TELECOMM 14069", "LAT": 21.011614, "LON": -102.18337}, "geometry": {"type": "Point", "coordinates": [-102.18336999999998, 21.011613999999994, 0.0]}}, {"type": "Feature", "properties": {"NOM_S.A.": "TELECOMM 14076", "LAT": 20.649868, "LON": -103.700949}, "geometry": {"type": "Point", "coordinates": [-103.700949, 20.649868, 0.0]}}, {"type": "Feature", "properties": {"NOM_S.A.": "BANBIEN DN8B2292", "LAT": 21.133902, "LON": -102.00974}, "geometry": {"type": "Point", "coordinates": [-102.00974043174298, 21.13390160019725, 0.0]}}, {"type": "Feature", "properties": {"NOM_S.A.": "BANBIEN DN8B0387", "LAT": 20.996412, "LON": -101.988695}, "geometry": {"type": "Point", "coordinates": [-101.98869499999999, 20.996412, 0.0]}}, {"type": "Feature", "properties": {"NOM_S.A.": "S.E La Experiencia", "LAT": 20.71143, "LON": -103.33481}, "geometry": {"type": "Point", "coordinates": [-103.33480999999999, 20.71143, 0.0]}}, {"type": "Feature", "properties": {"NOM_S.A.": "BANBIEN DN8B1728", "LAT": 19.033444, "LON": -102.084507}, "geometry": {"type": "Point", "coordinates": [-102.08450655242298, 19.03344444714831, 0.0]}}, {"type": "Feature", "properties": {"NOM_S.A.": "BANBIEN DN8B0865", "LAT": 19.159984, "LON": -102.05456}, "geometry": {"type": "Point", "coordinates": [-102.05455999999998, 19.159983999999998, 0.0]}}, {"type": "Feature", "properties": {"NOM_S.A.": "BANBIEN DN8B1719", "LAT": 19.14331, "LON": -102.216376}, "geometry": {"type": "Point", "coordinates": [-102.2163755993015, 19.143309528912546, 0.0]}}, {"type": "Feature", "properties": {"NOM_S.A.": "BANBIEN DN8B0637", "LAT": 19.094601, "LON": -102.356078}, "geometry": {"type": "Point", "coordinates": [-102.356078, 19.094600999999994, 0.0]}}, {"type": "Feature", "properties": {"NOM_S.A.": "BANBIEN DN8B1873", "LAT": 19.170238, "LON": -101.873968}, "geometry": {"type": "Point", "coordinates": [-101.8739681324746, 19.17023786740733, 0.0]}}, {"type": "Feature", "properties": {"NOM_S.A.": "BANBIEN DN8B1138", "LAT": 19.32704, "LON": -102.362496}, "geometry": {"type": "Point", "coordinates": [-102.36249642284659, 19.32703952445876, 0.0]}}, {"type": "Feature", "properties": {"NOM_S.A.": "UMR MNIMO001644", "LAT": 19.420199, "LON": -102.133351}, "geometry": {"type": "Point", "coordinates": [-102.1333512012082, 19.420199123015337, 0.0]}}, {"type": "Feature", "properties": {"NOM_S.A.": "BANBIEN DN8B0661", "LAT": 19.429314, "LON": -102.00387}, "geometry": {"type": "Point", "coordinates": [-102.00387, 19.429314, 0.0]}}, {"type": "Feature", "properties": {"NOM_S.A.": "BANBIEN DN8B0919", "LAT": 19.41714, "LON": -101.911297}, "geometry": {"type": "Point", "coordinates": [-101.911297, 19.41714, 0.0]}}, {"type": "Feature", "properties": {"NOM_S.A.": "BANBIEN DN8B1875", "LAT": 19.49448, "LON": -101.85604}, "geometry": {"type": "Point", "coordinates": [-101.85603997505197, 19.49447974375696, 0.0]}}, {"type": "Feature", "properties": {"NOM_S.A.": "TELECOMM 16081", "LAT": 19.334603, "LON": -101.917842}, "geometry": {"type": "Point", "coordinates": [-101.917842, 19.334603, 0.0]}}, {"type": "Feature", "properties": {"NOM_S.A.": "BANBIEN DN8B1129", "LAT": 19.638526, "LON": -102.054769}, "geometry": {"type": "Point", "coordinates": [-102.05476899999998, 19.638526, 0.0]}}, {"type": "Feature", "properties": {"NOM_S.A.": "BANBIEN DN8B0675", "LAT": 19.681679, "LON": -101.957424}, "geometry": {"type": "Point", "coordinates": [-101.957424, 19.681678999999995, 0.0]}}, {"type": "Feature", "properties": {"NOM_S.A.": "BANBIEN DN8B1296", "LAT": 19.658349, "LON": -101.927991}, "geometry": {"type": "Point", "coordinates": [-101.92799099999998, 19.658349000000005, 0.0]}}, {"type": "Feature", "properties": {"NOM_S.A.": "UMR MNIMO001603", "LAT": 19.632442, "LON": -101.901572}, "geometry": {"type": "Point", "coordinates": [-101.90157175771009, 19.632441649626735, 0.0]}}, {"type": "Feature", "properties": {"NOM_S.A.": "S.E. Uruapan III", "LAT": 19.359927, "LON": -102.067321}, "geometry": {"type": "Point", "coordinates": [-102.06732099999998, 19.359927, 0.0]}}, {"type": "Feature", "properties": {"NOM_S.A.": "BANBIEN DN8B0008", "LAT": 18.709452, "LON": -103.661435}, "geometry": {"type": "Point", "coordinates": [-103.6614349713844, 18.70945154785151, 0.0]}}, {"type": "Feature", "properties": {"NOM_S.A.": "CS AQUILA", "LAT": 18.596347, "LON": -103.503261}, "geometry": {"type": "Point", "coordinates": [-103.50326081749718, 18.596346959952395, 0.0]}}, {"type": "Feature", "properties": {"NOM_S.A.": "BANBIEN DN8B1599", "LAT": 20.007251, "LON": -101.020479}, "geometry": {"type": "Point", "coordinates": [-101.0204786702053, 20.00725071606239, 0.0]}}, {"type": "Feature", "properties": {"NOM_S.A.": "BANBIEN DN8B1877", "LAT": 19.973248, "LON": -102.071341}, "geometry": {"type": "Point", "coordinates": [-102.0713412575191, 19.973248388408084, 0.0]}}, {"type": "Feature", "properties": {"NOM_S.A.": "BANBIEN DN8B0341", "LAT": 20.15934, "LON": -102.067766}, "geometry": {"type": "Point", "coordinates": [-102.06776599999998, 20.159340000000004, 0.0]}}, {"type": "Feature", "properties": {"NOM_S.A.": "UMR MNIMO003131", "LAT": 20.174863, "LON": -101.997799}, "geometry": {"type": "Point", "coordinates": [-101.99779930138618, 20.17486317519828, 0.0]}}, {"type": "Feature", "properties": {"NOM_S.A.": "BANBIEN DN8B1141", "LAT": 20.109513, "LON": -101.938428}, "geometry": {"type": "Point", "coordinates": [-101.9384283925221, 20.109512945222345, 0.0]}}, {"type": "Feature", "properties": {"NOM_S.A.": "BANBIEN DN8B0843", "LAT": 19.901618, "LON": -102.002877}, "geometry": {"type": "Point", "coordinates": [-102.002877, 19.901617999999992, 0.0]}}, {"type": "Feature", "properties": {"NOM_S.A.": "BANBIEN  DN8B1596", "LAT": 20.154211, "LON": -101.716405}, "geometry": {"type": "Point", "coordinates": [-101.71640452052978, 20.15421131957832, 0.0]}}, {"type": "Feature", "properties": {"NOM_S.A.": "BANBIEN DN8B0815", "LAT": 20.259576, "LON": -101.949132}, "geometry": {"type": "Point", "coordinates": [-101.94913223600237, 20.259576157730802, 0.0]}}, {"type": "Feature", "properties": {"NOM_S.A.": "BANBIEN TARÍMBARO", "LAT": 19.797277, "LON": -101.170213}, "geometry": {"type": "Point", "coordinates": [-101.1702129443985, 19.79727682131936, 0.0]}}, {"type": "Feature", "properties": {"NOM_S.A.": "BANBIEN DN8B0758", "LAT": 20.292067, "LON": -101.598784}, "geometry": {"type": "Point", "coordinates": [-101.5987836275833, 20.29206710733104, 0.0]}}, {"type": "Feature", "properties": {"NOM_S.A.": "BANBIEN ÁLVARO OBREGÓN", "LAT": 19.824121, "LON": -101.036697}, "geometry": {"type": "Point", "coordinates": [-101.0366973383782, 19.82412080400736, 0.0]}}, {"type": "Feature", "properties": {"NOM_S.A.": "BANBIEN OCUMICHO", "LAT": 19.800275, "LON": -102.227162}, "geometry": {"type": "Point", "coordinates": [-102.2271622378576, 19.80027458754657, 0.0]}}, {"type": "Feature", "properties": {"NOM_S.A.": "BANBIEN DN8B0162", "LAT": 20.169472, "LON": -102.388947}, "geometry": {"type": "Point", "coordinates": [-102.38894699999999, 20.169472, 0.0]}}, {"type": "Feature", "properties": {"NOM_S.A.": "BANBIEN DN8B0169", "LAT": 19.987447, "LON": -102.715221}, "geometry": {"type": "Point", "coordinates": [-102.715221, 19.987447, 0.0]}}, {"type": "Feature", "properties": {"NOM_S.A.": "BANBIEN DN8B0312", "LAT": 20.116399, "LON": -102.658624}, "geometry": {"type": "Point", "coordinates": [-102.658624, 20.116398999999998, 0.0]}}, {"type": "Feature", "properties": {"NOM_S.A.": "BANBIEN DN8B0386", "LAT": 20.069305, "LON": -102.721038}, "geometry": {"type": "Point", "coordinates": [-102.721038, 20.069305, 0.0]}}, {"type": "Feature", "properties": {"NOM_S.A.": "BANBIEN DN8B0639", "LAT": 19.673194, "LON": -100.407227}, "geometry": {"type": "Point", "coordinates": [-100.407227, 19.673194, 0.0]}}, {"type": "Feature", "properties": {"NOM_S.A.": "BANBIEN DN8B0674", "LAT": 20.004498, "LON": -102.453327}, "geometry": {"type": "Point", "coordinates": [-102.453327, 20.004497999999998, 0.0]}}, {"type": "Feature", "properties": {"NOM_S.A.": "BANBIEN DN8B0677", "LAT": 19.848975, "LON": -102.111051}, "geometry": {"type": "Point", "coordinates": [-102.111051, 19.848974999999996, 0.0]}}, {"type": "Feature", "properties": {"NOM_S.A.": "BANBIEN DN8B0683", "LAT": 20.284947, "LON": -102.323844}, "geometry": {"type": "Point", "coordinates": [-102.32384399999997, 20.284946999999992, 0.0]}}, {"type": "Feature", "properties": {"NOM_S.A.": "BANBIEN DN8B0727", "LAT": 19.695588, "LON": -100.54173}, "geometry": {"type": "Point", "coordinates": [-100.54173, 19.695588, 0.0]}}, {"type": "Feature", "properties": {"NOM_S.A.": "BANBIEN DN8B0769", "LAT": 19.54276, "LON": -101.439446}, "geometry": {"type": "Point", "coordinates": [-101.4394464925905, 19.54276022163675, 0.0]}}, {"type": "Feature", "properties": {"NOM_S.A.": "BANBIEN DN8B0783", "LAT": 19.892829, "LON": -100.450497}, "geometry": {"type": "Point", "coordinates": [-100.450497, 19.892829000000003, 0.0]}}, {"type": "Feature", "properties": {"NOM_S.A.": "BANBIEN DN8B0784", "LAT": 19.991482, "LON": -103.026832}, "geometry": {"type": "Point", "coordinates": [-103.026832, 19.991481999999998, 0.0]}}, {"type": "Feature", "properties": {"NOM_S.A.": "BANBIEN DN8B0825", "LAT": 20.120701, "LON": -102.572663}, "geometry": {"type": "Point", "coordinates": [-102.572663, 20.120700999999997, 0.0]}}, {"type": "Feature", "properties": {"NOM_S.A.": "BANBIEN DN8B0990", "LAT": 20.332575, "LON": -102.275896}, "geometry": {"type": "Point", "coordinates": [-102.27589599999999, 20.332575, 0.0]}}, {"type": "Feature", "properties": {"NOM_S.A.": "BANBIEN DN8B1130", "LAT": 19.585734, "LON": -101.720955}, "geometry": {"type": "Point", "coordinates": [-101.72095458301948, 19.585734381808777, 0.0]}}, {"type": "Feature", "properties": {"NOM_S.A.": "BANBIEN DN8B1137", "LAT": 20.122446, "LON": -102.849934}, "geometry": {"type": "Point", "coordinates": [-102.84993399999998, 20.122446, 0.0]}}, {"type": "Feature", "properties": {"NOM_S.A.": "BANBIEN DN8B1140", "LAT": 19.391147, "LON": -101.283197}, "geometry": {"type": "Point", "coordinates": [-101.28319699999999, 19.391146999999993, 0.0]}}, {"type": "Feature", "properties": {"NOM_S.A.": "BANBIEN DN8B1143", "LAT": 19.958581, "LON": -102.429021}, "geometry": {"type": "Point", "coordinates": [-102.42902135885181, 19.958581142417994, 0.0]}}, {"type": "Feature", "properties": {"NOM_S.A.": "BANBIEN DN8B1302", "LAT": 20.274758, "LON": -102.560439}, "geometry": {"type": "Point", "coordinates": [-102.56043898683289, 20.27475822885658, 0.0]}}, {"type": "Feature", "properties": {"NOM_S.A.": "BANBIEN DN8B1552", "LAT": 19.992834, "LON": -101.268151}, "geometry": {"type": "Point", "coordinates": [-101.268151, 19.99283399999999, 0.0]}}, {"type": "Feature", "properties": {"NOM_S.A.": "BANBIEN DN8B1593", "LAT": 19.583778, "LON": -100.341222}, "geometry": {"type": "Point", "coordinates": [-100.341222, 19.583777999999988, 0.0]}}, {"type": "Feature", "properties": {"NOM_S.A.": "BANBIEN DN8B1598", "LAT": 19.408913, "LON": -101.633491}, "geometry": {"type": "Point", "coordinates": [-101.6334914358736, 19.40891341458625, 0.0]}}, {"type": "Feature", "properties": {"NOM_S.A.": "BANBIEN DN8B1724", "LAT": 19.739889, "LON": -102.485861}, "geometry": {"type": "Point", "coordinates": [-102.485861, 19.739889, 0.0]}}, {"type": "Feature", "properties": {"NOM_S.A.": "BANBIEN DN8B1726", "LAT": 19.959819, "LON": -102.30737}, "geometry": {"type": "Point", "coordinates": [-102.30736953250047, 19.95981909734859, 0.0]}}, {"type": "Feature", "properties": {"NOM_S.A.": "BANBIEN DN8B1874", "LAT": 19.881822, "LON": -102.211461}, "geometry": {"type": "Point", "coordinates": [-102.2114613165561, 19.881822116330216, 0.0]}}, {"type": "Feature", "properties": {"NOM_S.A.": "BANBIEN DN8B1876", "LAT": 19.522529, "LON": -102.412366}, "geometry": {"type": "Point", "coordinates": [-102.41236607009388, 19.522529077195284, 0.0]}}, {"type": "Feature", "properties": {"NOM_S.A.": "BANBIEN DN8B2016", "LAT": 20.00451, "LON": -101.41698}, "geometry": {"type": "Point", "coordinates": [-101.41697999999997, 20.004509999999996, 0.0]}}, {"type": "Feature", "properties": {"NOM_S.A.": "BANBIEN DN8B2019", "LAT": 19.70431, "LON": -102.525502}, "geometry": {"type": "Point", "coordinates": [-102.52550181079098, 19.704309999999992, 0.0]}}, {"type": "Feature", "properties": {"NOM_S.A.": "BANBIEN DN8B2076", "LAT": 19.561564, "LON": -101.411796}, "geometry": {"type": "Point", "coordinates": [-101.41179626023911, 19.56156370994145, 0.0]}}, {"type": "Feature", "properties": {"NOM_S.A.": "BANBIEN DN8B2077", "LAT": 19.504576, "LON": -101.602851}, "geometry": {"type": "Point", "coordinates": [-101.60285098381651, 19.50457583273026, 0.0]}}, {"type": "Feature", "properties": {"NOM_S.A.": "BANBIEN DN8B2078", "LAT": 19.96188, "LON": -101.13719}, "geometry": {"type": "Point", "coordinates": [-101.13718999999999, 19.96188, 0.0]}}, {"type": "Feature", "properties": {"NOM_S.A.": "CAC CFE 665", "LAT": 19.594927, "LON": -102.471649}, "geometry": {"type": "Point", "coordinates": [-102.47164917, 19.59492682999999, 0.0]}}, {"type": "Feature", "properties": {"NOM_S.A.": "CAC CFE 688", "LAT": 19.664659, "LON": -101.521004}, "geometry": {"type": "Point", "coordinates": [-101.52100371999998, 19.664659499999996, 0.0]}}, {"type": "Feature", "properties": {"NOM_S.A.": "CAC CFE 700", "LAT": 20.271766, "LON": -102.475872}, "geometry": {"type": "Point", "coordinates": [-102.4758717658716, 20.271766448143516, 0.0]}}, {"type": "Feature", "properties": {"NOM_S.A.": "CAC CFE COTIJA DE LA PAZ", "LAT": 19.803214, "LON": -102.686098}, "geometry": {"type": "Point", "coordinates": [-102.68609785371397, 19.80321388257648, 0.0]}}, {"type": "Feature", "properties": {"NOM_S.A.": "CGN ZAMORA", "LAT": 19.99058, "LON": -102.249773}, "geometry": {"type": "Point", "coordinates": [-102.24977315615607, 19.990580243900006, 0.0]}}, {"type": "Feature", "properties": {"NOM_S.A.": "CMS 21A", "LAT": 19.698889, "LON": -101.169722}, "geometry": {"type": "Point", "coordinates": [-101.1697222222222, 19.69888888888889, 0.0]}}, {"type": "Feature", "properties": {"NOM_S.A.": "CMS 21C", "LAT": 19.229167, "LON": -101.453611}, "geometry": {"type": "Point", "coordinates": [-101.4536111111111, 19.22916666666666, 0.0]}}, {"type": "Feature", "properties": {"NOM_S.A.": "CMS 238", "LAT": 19.802778, "LON": -101.780556}, "geometry": {"type": "Point", "coordinates": [-101.78055555555561, 19.802777777777774, 0.0]}}, {"type": "Feature", "properties": {"NOM_S.A.": "CS ACUITZIO DEL CANJE", "LAT": 19.498137, "LON": -101.3342}, "geometry": {"type": "Point", "coordinates": [-101.3341996701043, 19.498136964070362, 0.0]}}, {"type": "Feature", "properties": {"NOM_S.A.": "CS TZINTZUNTZAN", "LAT": 19.627817, "LON": -101.57261}, "geometry": {"type": "Point", "coordinates": [-101.5726103894745, 19.627816744375775, 0.0]}}, {"type": "Feature", "properties": {"NOM_S.A.": "POP ALTAN MORELIA", "LAT": 19.693188, "LON": -101.178079}, "geometry": {"type": "Point", "coordinates": [-101.17807903283347, 19.69318842098963, 0.0]}}, {"type": "Feature", "properties": {"NOM_S.A.": "S.E. Santiaguito", "LAT": 19.7244, "LON": -101.1862}, "geometry": {"type": "Point", "coordinates": [-101.18619999999999, 19.7244, 0.0]}}, {"type": "Feature", "properties": {"NOM_S.A.": "SEPOMEX 16084", "LAT": 19.788862, "LON": -100.969368}, "geometry": {"type": "Point", "coordinates": [-100.96936777328831, 19.788862134091207, 0.0]}}, {"type": "Feature", "properties": {"NOM_S.A.": "SEPOMEX 16091", "LAT": 19.809808, "LON": -100.883371}, "geometry": {"type": "Point", "coordinates": [-100.8833712989305, 19.809807723616224, 0.0]}}, {"type": "Feature", "properties": {"NOM_S.A.": "SEPOMEX 16137", "LAT": 19.747728, "LON": -101.046136}, "geometry": {"type": "Point", "coordinates": [-101.046136, 19.747728, 0.0]}}, {"type": "Feature", "properties": {"NOM_S.A.": "TELECOMM 16002", "LAT": 19.619932, "LON": -100.285483}, "geometry": {"type": "Point", "coordinates": [-100.2854833966749, 19.61993178487372, 0.0]}}, {"type": "Feature", "properties": {"NOM_S.A.": "TELECOMM 16006", "LAT": 19.650269, "LON": -102.25255}, "geometry": {"type": "Point", "coordinates": [-102.2525504378197, 19.65026876150491, 0.0]}}, {"type": "Feature", "properties": {"NOM_S.A.": "UBBJ 4466", "LAT": 20.021045, "LON": -102.600549}, "geometry": {"type": "Point", "coordinates": [-102.60054893329658, 20.0210446078681, 0.0]}}, {"type": "Feature", "properties": {"NOM_S.A.": "UMR MNIMO000833", "LAT": 20.165572, "LON": -102.188915}, "geometry": {"type": "Point", "coordinates": [-102.18891491767427, 20.165572140124375, 0.0]}}, {"type": "Feature", "properties": {"NOM_S.A.": "UMR MNIMO001253", "LAT": 19.699211, "LON": -100.477727}, "geometry": {"type": "Point", "coordinates": [-100.47772668174291, 19.699210555152533, 0.0]}}, {"type": "Feature", "properties": {"NOM_S.A.": "S.E. Zitacuaro II", "LAT": 19.428459, "LON": -100.390593}, "geometry": {"type": "Point", "coordinates": [-100.39059299999997, 19.428459, 0.0]}}, {"type": "Feature", "properties": {"NOM_S.A.": "S.E. Arboledas", "LAT": 19.9661, "LON": -102.2772}, "geometry": {"type": "Point", "coordinates": [-102.27719999999998, 19.966099999999997, 0.0]}}, {"type": "Feature", "properties": {"NOM_S.A.": "S.E. Arboledas", "LAT": 19.9661, "LON": -102.2772}, "geometry": {"type": "Point", "coordinates": [-102.27719999999998, 19.966099999999997, 0.0]}}, {"type": "Feature", "properties": {"NOM_S.A.": "UMR NTIMO000191", "LAT": 22.861917, "LON": -105.11758}, "geometry": {"type": "Point", "coordinates": [-105.1175799445911, 22.8619173903715, 0.0]}}, {"type": "Feature", "properties": {"NOM_S.A.": "BANBIEN DN8B1733", "LAT": 22.634786, "LON": -105.320489}, "geometry": {"type": "Point", "coordinates": [-105.32048881334039, 22.63478551189665, 0.0]}}, {"type": "Feature", "properties": {"NOM_S.A.": "UMR NTIMO000186", "LAT": 22.731182, "LON": -105.334863}, "geometry": {"type": "Point", "coordinates": [-105.3348631091571, 22.73118183042933, 0.0]}}, {"type": "Feature", "properties": {"NOM_S.A.": "UMR NTIMO000174", "LAT": 22.819055, "LON": -105.306447}, "geometry": {"type": "Point", "coordinates": [-105.30644732851988, 22.819054569951707, 0.0]}}, {"type": "Feature", "properties": {"NOM_S.A.": "UMR SAN MIGUEL", "LAT": 22.333968, "LON": -105.28258}, "geometry": {"type": "Point", "coordinates": [-105.2825795124655, 22.33396823316032, 0.0]}}, {"type": "Feature", "properties": {"NOM_S.A.": "CMS 13B", "LAT": 22.515278, "LON": -105.358889}, "geometry": {"type": "Point", "coordinates": [-105.35888888888887, 22.51527777777778, 0.0]}}, {"type": "Feature", "properties": {"NOM_S.A.": "BANBIEN DN8B2084", "LAT": 22.124279, "LON": -105.205976}, "geometry": {"type": "Point", "coordinates": [-105.20597599999999, 22.124279, 0.0]}}, {"type": "Feature", "properties": {"NOM_S.A.": "CAC CFE 746", "LAT": 22.398703, "LON": -105.459366}, "geometry": {"type": "Point", "coordinates": [-105.45936584, 22.398702619999998, 0.0]}}, {"type": "Feature", "properties": {"NOM_S.A.": "BANBIEN DN8B2089", "LAT": 20.803131, "LON": -105.25021}, "geometry": {"type": "Point", "coordinates": [-105.2502096573532, 20.80313054935348, 0.0]}}, {"type": "Feature", "properties": {"NOM_S.A.": "BANBIEN DN8B0308", "LAT": 21.939994, "LON": -105.284916}, "geometry": {"type": "Point", "coordinates": [-105.284916, 21.939994, 0.0]}}, {"type": "Feature", "properties": {"NOM_S.A.": "BANBIEN DN8B1055", "LAT": 21.541335, "LON": -105.287408}, "geometry": {"type": "Point", "coordinates": [-105.2874076363198, 21.5413350874012, 0.0]}}, {"type": "Feature", "properties": {"NOM_S.A.": "BANBIEN DN8B1057", "LAT": 21.955113, "LON": -105.143527}, "geometry": {"type": "Point", "coordinates": [-105.14352699999998, 21.955112999999997, 0.0]}}, {"type": "Feature", "properties": {"NOM_S.A.": "BANBIEN DN8B1209", "LAT": 21.448336, "LON": -104.907658}, "geometry": {"type": "Point", "coordinates": [-104.90765799999998, 21.448336, 0.0]}}, {"type": "Feature", "properties": {"NOM_S.A.": "BANBIEN DN8B2087", "LAT": 21.326387, "LON": -104.59225}, "geometry": {"type": "Point", "coordinates": [-104.59225, 21.32638699999999, 0.0]}}, {"type": "Feature", "properties": {"NOM_S.A.": "CAC CFE 745", "LAT": 21.811996, "LON": -105.201569}, "geometry": {"type": "Point", "coordinates": [-105.2015686, 21.811996459999992, 0.0]}}, {"type": "Feature", "properties": {"NOM_S.A.": "CMS 13A", "LAT": 21.498056, "LON": -104.899722}, "geometry": {"type": "Point", "coordinates": [-104.8997222222222, 21.498055555555556, 0.0]}}, {"type": "Feature", "properties": {"NOM_S.A.": "UMR OJO DE AGUA DE PALMILLAS", "LAT": 22.621116, "LON": -105.603587}, "geometry": {"type": "Point", "coordinates": [-105.6035869637018, 22.621115544418647, 0.0]}}, {"type": "Feature", "properties": {"NOM_S.A.": "UMR LA CAMPANA UNO", "LAT": 22.697607, "LON": -105.605286}, "geometry": {"type": "Point", "coordinates": [-105.60528599497466, 22.697607348920144, 0.0]}}, {"type": "Feature", "properties": {"NOM_S.A.": "BANBIEN DN8B0129", "LAT": 22.826867, "LON": -105.787567}, "geometry": {"type": "Point", "coordinates": [-105.78756699999998, 22.826867, 0.0]}}, {"type": "Feature", "properties": {"NOM_S.A.": "BANBIEN DN8B0776", "LAT": 22.276273, "LON": -101.985533}, "geometry": {"type": "Point", "coordinates": [-101.98553296373379, 22.276272988994243, 0.0]}}, {"type": "Feature", "properties": {"NOM_S.A.": "UMR ZSIMO001334", "LAT": 22.159989, "LON": -101.950779}, "geometry": {"type": "Point", "coordinates": [-101.9507790145126, 22.159989483285088, 0.0]}}, {"type": "Feature", "properties": {"NOM_S.A.": "BANBIEN DN8B0423", "LAT": 19.843337, "LON": -101.768763}, "geometry": {"type": "Point", "coordinates": [-101.76876310038838, 19.843337458313105, 0.0]}}, {"type": "Feature", "properties": {"NOM_S.A.": "BANBIEN DN8B0828", "LAT": 19.981604, "LON": -101.747428}, "geometry": {"type": "Point", "coordinates": [-101.74742763403958, 19.98160423156622, 0.0]}}, {"type": "Feature", "properties": {"NOM_S.A.": "BANBIEN DN8B1132", "LAT": 19.923242, "LON": -101.751243}, "geometry": {"type": "Point", "coordinates": [-101.7512432636757, 19.923242330123387, 0.0]}}, {"type": "Feature", "properties": {"NOM_S.A.": "AM - Plaza de Cobro Santa Casilda", "LAT": 19.152988, "LON": -101.97818}, "geometry": {"type": "Point", "coordinates": [-101.9781797778982, 19.15298783456871, 0.0]}}, {"type": "Feature", "properties": {"NOM_S.A.": "AM - Plaza de Cobro Las Cañas", "LAT": 18.554213, "LON": -101.970397}, "geometry": {"type": "Point", "coordinates": [-101.97039689708069, 18.55421299918951, 0.0]}}, {"type": "Feature", "properties": {"NOM_S.A.": "POP GUADALAJARA", "LAT": 20.657015, "LON": -103.353776}, "geometry": {"type": "Point", "coordinates": [-103.3537756674685, 20.657014832952157, 0.0]}}]}