{"type": "FeatureCollection", "features": [{"type": "Feature", "properties": {"NOM_S.A.": "HOTEL AGUASCALIENTES", "LAT": 21.889967, "LON": -102.283256}, "geometry": {"type": "Point", "coordinates": [-102.28325559999998, 21.889966669999925, 0.0]}}, {"type": "Feature", "properties": {"NOM_S.A.": "CASETA COMUNICACIONES AGUASCALIENTES POTENCIA", "LAT": 21.762389, "LON": -102.220139}, "geometry": {"type": "Point", "coordinates": [-102.22013889999998, 21.762388890000125, 0.0]}}, {"type": "Feature", "properties": {"NOM_S.A.": "HOTEL COLIMA", "LAT": 19.281572, "LON": -103.775039}, "geometry": {"type": "Point", "coordinates": [-103.77503889999998, 19.281572200000145, 0.0]}}, {"type": "Feature", "properties": {"NOM_S.A.": "HOTEL MANZANILLO", "LAT": 19.079889, "LON": -104.2737}, "geometry": {"type": "Point", "coordinates": [-104.27369999999998, 19.079888890000056, 0.0]}}, {"type": "Feature", "properties": {"NOM_S.A.": "S.E. IRAPUATO DOS", "LAT": 20.699208, "LON": -101.298417}, "geometry": {"type": "Point", "coordinates": [-101.2984167, 20.69920833000003, 0.0]}}, {"type": "Feature", "properties": {"NOM_S.A.": "CASETA COMUNICACIONES LEON TRES", "LAT": 21.14385, "LON": -101.727667}, "geometry": {"type": "Point", "coordinates": [-101.72766669999987, 21.14385000000004, 0.0]}}, {"type": "Feature", "properties": {"NOM_S.A.": "CASETA COMUNICACIONES SALAMANCA", "LAT": 20.57125, "LON": -101.168215}, "geometry": {"type": "Point", "coordinates": [-101.168215, 20.571250000000127, 0.0]}}, {"type": "Feature", "properties": {"NOM_S.A.": "CASETA COMUNICACIONES SILAO POTENCIA", "LAT": 20.907389, "LON": -101.465889}, "geometry": {"type": "Point", "coordinates": [-101.4658888999999, 20.907388889999986, 0.0]}}, {"type": "Feature", "properties": {"NOM_S.A.": "HOTEL GUANAJUATO", "LAT": 21.01215, "LON": -101.242589}, "geometry": {"type": "Point", "coordinates": [-101.24258889999997, 21.012150000000013, 0.0]}}, {"type": "Feature", "properties": {"NOM_S.A.": "HOTEL CELAYA", "LAT": 20.517253, "LON": -100.800386}, "geometry": {"type": "Point", "coordinates": [-100.8003860999999, 20.51725278000009, 0.0]}}, {"type": "Feature", "properties": {"NOM_S.A.": "HOTEL SALVATIERRA", "LAT": 20.210875, "LON": -100.890889}, "geometry": {"type": "Point", "coordinates": [-100.8908888999999, 20.21087499999999, 0.0]}}, {"type": "Feature", "properties": {"NOM_S.A.": "HOTEL SAN FRANCISCO DEL RINCON", "LAT": 21.028928, "LON": -101.868367}, "geometry": {"type": "Point", "coordinates": [-101.86836669999998, 21.028927779999997, 0.0]}}, {"type": "Feature", "properties": {"NOM_S.A.": "HOTEL SAN LUIS DE LA PAZ", "LAT": 21.283681, "LON": -100.635208}, "geometry": {"type": "Point", "coordinates": [-100.6352083, 21.28368056000011, 0.0]}}, {"type": "Feature", "properties": {"NOM_S.A.": "HOTEL SAN MIGUEL DE ALLENDE", "LAT": 20.931111, "LON": -100.745556}, "geometry": {"type": "Point", "coordinates": [-100.7455555999999, 20.93111111000007, 0.0]}}, {"type": "Feature", "properties": {"NOM_S.A.": "HOTEL SAN JUAN DE LOS LAGOS", "LAT": 21.2664, "LON": -102.311781}, "geometry": {"type": "Point", "coordinates": [-102.3117806, 21.2664, 0.0]}}, {"type": "Feature", "properties": {"NOM_S.A.": "HOTEL ZAPOPAN", "LAT": 20.603036, "LON": -103.419867}, "geometry": {"type": "Point", "coordinates": [-103.4198666999999, 20.603036110000048, 0.0]}}, {"type": "Feature", "properties": {"NOM_S.A.": "S.E. OCOTLAN", "LAT": 20.295, "LON": -102.685236}, "geometry": {"type": "Point", "coordinates": [-102.6852361, 20.29500000000002, 0.0]}}, {"type": "Feature", "properties": {"NOM_S.A.": "CASETA COMUNICACIONES TESISTAN", "LAT": 20.789206, "LON": -103.502333}, "geometry": {"type": "Point", "coordinates": [-103.50233329999998, 20.789205560000074, 0.0]}}, {"type": "Feature", "properties": {"NOM_S.A.": "CASETA COMUNICACIONES ACATLAN POTENCIA", "LAT": 20.4169, "LON": -103.562367}, "geometry": {"type": "Point", "coordinates": [-103.5623667, 20.41690000000011, 0.0]}}, {"type": "Feature", "properties": {"NOM_S.A.": "CASETA COMUNICACIONES ATEQUIZA", "LAT": 20.477019, "LON": -103.233558}, "geometry": {"type": "Point", "coordinates": [-103.233558, 20.477019000000045, 0.0]}}, {"type": "Feature", "properties": {"NOM_S.A.": "CASETA COMUNICACIONES TEPATITLAN", "LAT": 20.799744, "LON": -102.789236}, "geometry": {"type": "Point", "coordinates": [-102.7892361, 20.79974400000002, 0.0]}}, {"type": "Feature", "properties": {"NOM_S.A.": "S.E. CIUDAD GUZMAN", "LAT": 19.665431, "LON": -103.486758}, "geometry": {"type": "Point", "coordinates": [-103.4867583, 19.66543056, 0.0]}}, {"type": "Feature", "properties": {"NOM_S.A.": "S.E. VALLARTA POTENCIA", "LAT": 20.7205, "LON": -105.1949}, "geometry": {"type": "Point", "coordinates": [-105.1949, 20.720500000000058, 0.0]}}, {"type": "Feature", "properties": {"NOM_S.A.": "HOTEL TANGANCICUARO", "LAT": 19.880108, "LON": -102.20053}, "geometry": {"type": "Point", "coordinates": [-102.20052999999999, 19.880107999999943, 0.0]}}, {"type": "Feature", "properties": {"NOM_S.A.": "HOTEL ZINAPECUARO", "LAT": 19.852756, "LON": -100.823197}, "geometry": {"type": "Point", "coordinates": [-100.8231971999999, 19.85275556000011, 0.0]}}, {"type": "Feature", "properties": {"NOM_S.A.": "CASETA COMUNICACIONES CARAPAN POTENCIA", "LAT": 19.848797, "LON": -102.008733}, "geometry": {"type": "Point", "coordinates": [-102.0087333, 19.84879722000011, 0.0]}}, {"type": "Feature", "properties": {"NOM_S.A.": "CASETA COMUNICACIONES MORELIA POTENCIA", "LAT": 19.691189, "LON": -101.251578}, "geometry": {"type": "Point", "coordinates": [-101.25157779999998, 19.691188889999985, 0.0]}}, {"type": "Feature", "properties": {"NOM_S.A.": "S.E. ZAMORA POTENCIA", "LAT": 19.944686, "LON": -102.244386}, "geometry": {"type": "Point", "coordinates": [-102.24438609999997, 19.94468611000008, 0.0]}}, {"type": "Feature", "properties": {"NOM_S.A.": "HOTEL CIUDAD HIDALGO", "LAT": 19.691244, "LON": -100.527922}, "geometry": {"type": "Point", "coordinates": [-100.52792219999999, 19.691244440000105, 0.0]}}, {"type": "Feature", "properties": {"NOM_S.A.": "HOTEL PUREPERO", "LAT": 19.920786, "LON": -102.031719}, "geometry": {"type": "Point", "coordinates": [-102.03171939999997, 19.92078611000005, 0.0]}}, {"type": "Feature", "properties": {"NOM_S.A.": "S.E. COAHUAYANA", "LAT": 18.711442, "LON": -103.677636}, "geometry": {"type": "Point", "coordinates": [-103.67763599999988, 18.71144200000009, 0.0]}}, {"type": "Feature", "properties": {"NOM_S.A.": "S.E. URUAPAN POTENCIA", "LAT": 19.33145, "LON": -102.088006}, "geometry": {"type": "Point", "coordinates": [-102.08800560000002, 19.331450000000018, 0.0]}}, {"type": "Feature", "properties": {"NOM_S.A.": "CASETA COMUNICACIONES TEPIC DOS", "LAT": 21.580972, "LON": -104.936922}, "geometry": {"type": "Point", "coordinates": [-104.9369222, 21.58097222000004, 0.0]}}, {"type": "Feature", "properties": {"NOM_S.A.": "S. E. ESCUINAPA", "LAT": 22.838189, "LON": -105.787472}, "geometry": {"type": "Point", "coordinates": [-105.7874720483582, 22.83818869683147, 0.0]}}]}